{
    "links": {
        "self": "http://www.neowsapp.com/rest/v1/neo/3180186?api_key=iIulBulltgU6a56xZRHN4H3l9WmuAYTsLGpBGhQ2"
    },
    "id": "3180186",
    "neo_reference_id": "3180186",
    "name": "(2004 HS56)",
    "designation": "2004 HS56",
    "nasa_jpl_url": "http://ssd.jpl.nasa.gov/sbdb.cgi?sstr=3180186",
    "absolute_magnitude_h": 22.4,
    "estimated_diameter": {
        "kilometers": {
            "estimated_diameter_min": 0.0880146521,
            "estimated_diameter_max": 0.1968067451
        },
        "meters": {
            "estimated_diameter_min": 88.0146520901,
            "estimated_diameter_max": 196.8067450894
        },
        "miles": {
            "estimated_diameter_min": 0.0546897524,
            "estimated_diameter_max": 0.122290004
        },
        "feet": {
            "estimated_diameter_min": 288.7619911632,
            "estimated_diameter_max": 645.6914415591
        }
    },
    "is_potentially_hazardous_asteroid": false,
    "close_approach_data": [
        {
            "close_approach_date": "2004-05-01",
            "close_approach_date_full": "2004-May-01 10:55",
            "epoch_date_close_approach": 1083408900000,
            "relative_velocity": {
                "kilometers_per_second": "16.8194405517",
                "kilometers_per_hour": "60549.9859860746",
                "miles_per_hour": "37623.4065700695"
            },
            "miss_distance": {
                "astronomical": "0.0362837848",
                "lunar": "14.1143922872",
                "kilometers": "5427976.921618376",
                "miles": "3372788.4608145488"
            },
            "orbiting_body": "Earth"
        },
        {
            "close_approach_date": "2094-04-11",
            "close_approach_date_full": "2094-Apr-11 21:07",
            "epoch_date_close_approach": 3921858420000,
            "relative_velocity": {
                "kilometers_per_second": "22.9849257829",
                "kilometers_per_hour": "82745.7328183892",
                "miles_per_hour": "51414.9804837375"
            },
            "miss_distance": {
                "astronomical": "0.4685707645",
                "lunar": "182.2740273905",
                "kilometers": "70097188.313471615",
                "miles": "43556373.082133687"
            },
            "orbiting_body": "Earth"
        }
    ],
    "orbital_data": {
        "orbit_id": "12",
        "orbit_determination_date": "2017-04-06 09:12:50",
        "first_observation_date": "2004-04-27",
        "last_observation_date": "2004-05-06",
        "data_arc_in_days": 9,
        "observations_used": 68,
        "orbit_uncertainty": "8",
        "minimum_orbit_intersection": ".030773",
        "jupiter_tisserand_invariant": "4.483",
        "epoch_osculation": "2453124.5",
        "eccentricity": ".2855083401628039",
        "semi_major_axis": "1.441374012583699",
        "inclination": "30.04315497993558",
        "ascending_node_longitude": "41.75743002181511",
        "orbital_period": "632.0674973992514",
        "perihelion_distance": "1.029849710697127",
        "perihelion_argument": "196.1330397095364",
        "aphelion_distance": "1.852898314470272",
        "perihelion_time": "2453141.431224276520",
        "mean_anomaly": "350.3566616466958",
        "mean_motion": ".5695594243989462",
        "equinox": "J2000",
        "orbit_class": {
            "orbit_class_type": "AMO",
            "orbit_class_description": "Near-Earth asteroid orbits similar to that of 1221 Amor",
            "orbit_class_range": "1.017 AU < q (perihelion) < 1.3 AU"
        }
    },
    "is_sentry_object": false
}